NORAD_CAT_ID,OBJECT_NAME,OBJECT_TYPE,EPOCH,MEAN_MOTION,ECCENTRICITY,INCLINATION,RA_OF_ASC_NODE,ARG_OF_PERICENTER,MEAN_ANOMALY,BSTAR,MEAN_MOTION_DOT,MEAN_MOTION_DDOT,TLE_LINE0,TLE_LINE1,TLE_LINE2,SEMIMAJOR_AXIS,PERIOD,APOGEE,PERIGEE,DECAYED
52698.0,STARLINK-4030,PAYLOAD,2022-10-10 11:41:06,15.08829854,0.0002053,53.2199,343.5371,35.1938,324.9190000000001,0.00010999,1.462e-05,0.0,0 STARLINK-4030,1 52698U 22053AU  22283.48687869  .00001462  00000-0  10999-3 0  9999,2 52698  53.2199 343.5371 0002053  35.1938 324.9190 15.08829854 22941,6917.911,95.438,541.197,538.356,0.0
52698.0,STARLINK-4030,PAYLOAD,2022-10-10 21:13:25,15.08835282,0.0001962,53.2197,341.7531,43.044,317.0705,8.6364e-05,1.086e-05,0.0,0 STARLINK-4030,1 52698U 22053AU  22283.88431718  .00001086  00000-0  86364-4 0  9995,2 52698  53.2197 341.7531 0001962  43.0440 317.0705 15.08835282 23006,6917.895,95.438,541.117,538.403,0.0
52698.0,STARLINK-4030,PAYLOAD,2022-10-11 09:56:32,15.0881326,0.0001885,53.2202,339.3744,27.2095,332.8996,-0.00016609,-2.929e-05,0.0,0 STARLINK-4030,1 52698U 22053AU  22284.41426180 -.00002929  00000-0 -16609-3 0  9995,2 52698  53.2202 339.3744 0001885  27.2095 332.8996 15.08813260 22688,6917.962,95.439,541.131,538.523,0.0
52698.0,STARLINK-4030,PAYLOAD,2022-10-11 13:07:19,15.08799927,0.0001899999999999,53.2198,338.78,44.8873,315.2273,-0.00032719,-5.486e-05,0.0,0 STARLINK-4030,1 52698U 22053AU  22284.54675839 -.00005486  00000-0 -32719-3 0  9997,2 52698  53.2198 338.7800 0001900  44.8873 315.2273 15.08799927 23109,6918.003000000002,95.44,541.182,538.553,0.0
52698.0,STARLINK-4030,PAYLOAD,2022-10-12 09:47:18,15.08830059,0.000196,53.2188,334.9132,37.4159,322.6969,-6.4757e-05,-1.318e-05,0.0,0 STARLINK-4030,1 52698U 22053AU  22285.40785723 -.00001318  00000-0 -64757-4 0  9995,2 52698  53.2188 334.9132 0001960  37.4159 322.6969 15.08830059 22830,6917.911,95.438,541.132,538.42,0.0
52698.0,STARLINK-4030,PAYLOAD,2022-10-13 00:05:46,15.08833576,0.0001786999999999,53.2191,332.2357,34.6652,325.4456,0.00015038,2.106e-05,0.0,0 STARLINK-4030,1 52698U 22053AU  22286.00400887  .00002106  00000-0  15038-3 0  9998,2 52698  53.2191 332.2357 0001787  34.6652 325.4456 15.08833576 22927,6917.9,95.438,541.001,538.529,0.0
52698.0,STARLINK-4030,PAYLOAD,2022-10-13 09:38:05,15.08826785,0.0001676999999999,53.2199,330.4502,36.4198,323.6908,0.0001014,1.326e-05,0.0,0 STARLINK-4030,1 52698U 22053AU  22286.40145566  .00001326  00000-0  10140-3 0  9994,2 52698  53.2199 330.4502 0001677  36.4198 323.6908 15.08826785 23387,6917.920999999999,95.438,540.946,538.626,0.0
52698.0,STARLINK-4030,PAYLOAD,2022-10-14 03:07:20,15.0884375,0.0002109,53.2192,327.1832,31.5407,328.5711,2.8327e-05,1.63e-06,0.0,0 STARLINK-4030,1 52698U 22053AU  22287.13009443  .00000163  00000-0  28327-4 0  9993,2 52698  53.2192 327.1832 0002109  31.5407 328.5711 15.08843750 23094,6917.869000000002,95.437,541.193,538.275,0.0
52698.0,STARLINK-4030,PAYLOAD,2022-10-14 09:28:52,15.08841963,0.0002065,53.2194,325.9925,35.3508,324.762,8.955700000000001e-06,-1.46e-06,0.0,0 STARLINK-4030,1 52698U 22053AU  22287.39505511 -.00000146  00000-0  89557-5 0  9993,2 52698  53.2194 325.9925 0002065  35.3508 324.7620 15.08841963 23530,6917.874,95.437,541.168,538.311,0.0
52698.0,STARLINK-4030,PAYLOAD,2022-10-15 09:19:39,15.08844579,0.0002035,53.2187,321.5312,36.7724,323.3407,-1.5507999999999998e-05,-5.35e-06,0.0,0 STARLINK-4030,1 52698U 22053AU  22288.38865143 -.00000535  00000-0 -15508-4 0  9990,2 52698  53.2187 321.5312 0002035  36.7724 323.3407 15.08844579 23282,6917.866,95.437,541.139,538.3240000000002,0.0
52698.0,STARLINK-4030,PAYLOAD,2022-10-15 23:38:08,15.08835416,0.0002085,53.218,318.8537,33.846,326.2665,-6.0725e-05,-1.254e-05,0.0,0 STARLINK-4030,1 52698U 22053AU  22288.98481862 -.00001254  00000-0 -60725-4 0  9998,2 52698  53.2180 318.8537 0002085  33.8460 326.2665 15.08835416 23371,6917.894,95.438,541.202,538.317,0.0
52698.0,STARLINK-4030,PAYLOAD,2022-10-16 12:21:13,15.08835236,0.000214,53.2179,316.4752,33.866,326.2468,-4.7475e-05,-1.044e-05,0.0,0 STARLINK-4030,1 52698U 22053AU  22289.51473954 -.00001044  00000-0 -47475-4 0  9995,2 52698  53.2179 316.4752 0002140  33.8660 326.2468 15.08835236 23850,6917.895,95.438,541.24,538.28,0.0
52698.0,STARLINK-4030,PAYLOAD,2022-10-17 02:39:42,15.08828676,0.0001966,53.2183,313.8013,44.6498,315.4652,-0.0001026,-1.92e-05,0.0,0 STARLINK-4030,1 52698U 22053AU  22290.11090726 -.00001920  00000-0 -10260-3 0  9999,2 52698  53.2183 313.8013 0001966  44.6498 315.4652 15.08828676 23541,6917.915,95.438,541.14,538.42,0.0
52698.0,STARLINK-4030,PAYLOAD,2022-10-17 10:36:37,15.08831176,0.0001943999999999,53.2188,312.3141,38.5256,321.5875,-3.1035e-05,-7.82e-06,0.0,0 STARLINK-4030,1 52698U 22053AU  22290.44210497 -.00000782  00000-0 -31035-4 0  9993,2 52698  53.2188 312.3141 0001944  38.5256 321.5875 15.08831176 23995,6917.906999999997,95.438,541.117,538.428,0.0
52698.0,STARLINK-4030,PAYLOAD,2022-10-18 02:30:28,15.08840078,0.0002214,53.2191,309.3415,30.336,329.776,5.980100000000001e-05,6.64e-06,0.0,0 STARLINK-4030,1 52698U 22053AU  22291.10449880  .00000664  00000-0  59801-4 0  9995,2 52698  53.2191 309.3415 0002214  30.3360 329.7760 15.08840078 23697,6917.88,95.438,541.2769999999998,538.214,0.0
52698.0,STARLINK-4030,PAYLOAD,2022-10-18 10:27:24,15.08832763,0.0002248,53.2187,307.8544,34.6309,325.4829,1.628e-06,-2.62e-06,0.0,0 STARLINK-4030,1 52698U 22053AU  22291.43570592 -.00000262  00000-0  16280-5 0  9996,2 52698  53.2187 307.8544 0002248  34.6309 325.4829 15.08832763 24147,6917.903,95.438,541.323,538.212,0.0
52698.0,STARLINK-4030,PAYLOAD,2022-10-18 18:24:19,15.08872123,0.0001573,53.2182,306.3679,41.9124,318.1988,-0.00044214,-7.324e-05,0.0,0 STARLINK-4030,1 52698U 22053AU  22291.76689645 -.00007324  00000-0 -44214-3 0  9995,2 52698  53.2182 306.3679 0001573  41.9124 318.1988 15.08872123 23790,6917.781999999997,95.436,540.735,538.559,0.0
52698.0,STARLINK-4030,PAYLOAD,2022-10-18 19:59:43,15.08834757,0.0002259,53.219,306.0702,35.3659,324.7483,4.561600000000001e-05,4.38e-06,0.0,0 STARLINK-4030,1 52698U 22053AU  22291.83314464  .00000438  00000-0  45616-4 0  9992,2 52698  53.2190 306.0702 0002259  35.3659 324.7483 15.08834757 24206,6917.896,95.438,541.3240000000002,538.1990000000002,0.0
52698.0,STARLINK-4030,PAYLOAD,2022-10-19 03:56:38,15.08838502,0.0002272,53.2185,304.5825,38.0021,322.1131,0.00014352,1.997e-05,0.0,0 STARLINK-4030,1 52698U 22053AU  22292.16433940  .00001997  00000-0  14352-3 0  9993,2 52698  53.2185 304.5825 0002272  38.0021 322.1131 15.08838502 23851,6917.885,95.438,541.322,538.178,0.0
52698.0,STARLINK-4030,PAYLOAD,2022-10-19 08:42:48,15.08842064,0.0002281,53.2184,303.6907,38.6554,321.4601,0.00016022,2.263e-05,0.0,0 STARLINK-4030,1 52698U 22053AU  22292.36305675  .00002263  00000-0  16022-3 0  9991,2 52698  53.2184 303.6907 0002281  38.6554 321.4601 15.08842064 24288,6917.874,95.437,541.317,538.161,0.0
52698.0,STARLINK-4030,PAYLOAD,2022-10-20 05:22:48,15.0884896,0.0002346999999999,53.2183,299.8247,41.6103,318.5068,2.1966e-05,6.1e-07,0.0,0 STARLINK-4030,1 52698U 22053AU  22293.22417627  .00000061  00000-0  21966-4 0  9996,2 52698  53.2183 299.8247 0002347  41.6103 318.5068 15.08848960 24013,6917.853,95.437,541.342,538.094,0.0
52698.0,STARLINK-4030,PAYLOAD,2022-10-20 06:58:11,15.08851591,0.000215,53.2184,299.5274,41.3067,318.8087,2.0697e-05,4.1e-07,0.0,0 STARLINK-4030,1 52698U 22053AU  22293.29041383  .00000041  00000-0  20697-4 0  9993,2 52698  53.2184 299.5274 0002150  41.3067 318.8087 15.08851591 24422,6917.845,95.437,541.197,538.2230000000002,0.0
52698.0,STARLINK-4030,PAYLOAD,2022-10-20 18:05:54,15.08834546,0.0002329,53.2184,297.4467,41.3058,318.811,7.8304e-06,-1.64e-06,0.0,0 STARLINK-4030,1 52698U 22053AU  22293.75410479 -.00000164  00000-0  78304-5 0  9996,2 52698  53.2184 297.4467 0002329  41.3058 318.8110 15.08834546 24092,6917.897,95.438,541.373,538.151,0.0
52698.0,STARLINK-4030,PAYLOAD,2022-10-20 19:41:17,15.08845927,0.0001925,53.2194,297.1493,38.9597,321.1534,-0.00010235,-1.917e-05,0.0,0 STARLINK-4030,1 52698U 22053AU  22293.82033943 -.00001917  00000-0 -10235-3 0  9996,2 52698  53.2194 297.1493 0001925  38.9597 321.1534 15.08845927 24508,6917.861999999999,95.437,541.059,538.396,0.0
52698.0,STARLINK-4030,PAYLOAD,2022-10-21 03:38:12,15.08845106,0.0002416,53.2182,295.6619,40.879,319.2383,2.2406e-05,6.8e-07,0.0,0 STARLINK-4030,1 52698U 22053AU  22294.15153711  .00000068  00000-0  22406-4 0  9997,2 52698  53.2182 295.6619 0002416  40.8790 319.2383 15.08845106 24151,6917.865,95.437,541.401,538.058,0.0
52698.0,STARLINK-4030,PAYLOAD,2022-10-21 06:48:58,15.08846549,0.000236,53.2184,295.0674,40.381,319.7357,3.4481e-05,2.61e-06,0.0,0 STARLINK-4030,1 52698U 22053AU  22294.28401533  .00000261  00000-0  34481-4 0  9990,2 52698  53.2184 295.0674 0002360  40.3810 319.7357 15.08846549 24578,6917.86,95.437,541.3580000000002,538.0930000000002,0.0
52698.0,STARLINK-4030,PAYLOAD,2022-10-21 19:32:04,15.08834266,0.0002423,53.2173,292.6885,44.8568,315.2619,-3.4688000000000004e-05,-8.400000000000001e-06,0.0,0 STARLINK-4030,1 52698U 22053AU  22294.81394466 -.00000840  00000-0 -34688-4 0  9999,2 52698  53.2173 292.6885 0002423  44.8568 315.2619 15.08834266 24252,6917.898,95.438,541.439,538.087,0.0
52698.0,STARLINK-4030,PAYLOAD,2022-10-22 03:29:01,15.08822771,0.0002331,53.2178,291.2009,43.8585,316.2592,-0.00019413,-3.375e-05,0.0,0 STARLINK-4030,1 52698U 22053AU  22295.14515990 -.00003375  00000-0 -19413-3 0  9997,2 52698  53.2178 291.2009 0002331  43.8585 316.2592 15.08822771 24301,6917.933000000001,95.439,541.411,538.185,0.0
52698.0,STARLINK-4030,PAYLOAD,2022-10-22 06:39:48,15.08822177,0.0002316999999999,53.2189,290.6077,36.6686,323.4464,-0.00014731,-2.631e-05,0.0,0 STARLINK-4030,1 52698U 22053AU  22295.27763966 -.00002631  00000-0 -14731-3 0  9991,2 52698  53.2189 290.6077 0002317  36.6686 323.4464 15.08822177 24721,6917.935,95.439,541.403,538.197,0.0
